CSS (TIANHE)            
1 48274U 21035A   24230.61879056  .00055445  00000+0  64205-3 0  9991
2 48274  41.4681  68.7303 0002699 262.6554  97.3978 15.60952313188706
